FLOCK 4Q-36             
1 58274U 23174U   26062.67400750  .00037983  00000+0  65874-3 0  9990
2 58274  97.3902 151.7836 0007685 165.2630 194.8848 15.50752888129449
FLOCK 4Q-12             
1 58275U 23174V   26062.81331148  .00095038  00000+0  16255-2 0  9994
2 58275  97.3896 151.8095 0005995 171.8251 188.3100 15.50914249129488
FLOCK 4Q-28             
1 58280U 23174AA  26062.75187286  .00038329  00000+0  71721-3 0  9995
2 58280  97.3927 150.9931 0007327 170.9677 189.1706 15.48587067129393
FLOCK 4Q-27             
1 58282U 23174AC  26062.81227558  .00040439  00000+0  75694-3 0  9999
2 58282  97.3862 150.5989 0006691 165.7449 194.3992 15.48571184129415
FLOCK 4Q-26             
1 58284U 23174AE  26062.72896482  .00042474  00000+0  74614-3 0  9991
2 58284  97.3915 151.9272 0007251 168.9560 191.1852 15.50369327129459
FLOCK 4Q-31             
1 58285U 23174AF  26062.69376949  .00044197  00000+0  78999-3 0  9993
2 58285  97.3959 151.5340 0007899 171.3277 188.8112 15.49862061129409
FLOCK 4Q-30             
1 58286U 23174AG  26062.81170428  .00046483  00000+0  82360-3 0  9999
2 58286  97.3965 151.8352 0007579 166.6949 193.4504 15.50103843129439
PELICAN-1               
1 58296U 23174AS  26062.55615108  .00099332  00000+0  10652-2 0  9995
2 58296  97.4024 157.0194 0008697 249.1810 110.8518 15.63449254129605
FLOCK 4Q-25             
1 58303U 23174AZ  26062.67916858  .00063153  00000+0  90798-3 0  9995
2 58303  97.3878 152.5365 0005215 153.2533 206.8991 15.55861710129539
FLOCK 4Q-29             
1 58304U 23174BA  26062.77223035  .00046446  00000+0  85347-3 0  9995
2 58304  97.3948 151.3983 0007959 159.0641 201.0937 15.49061267129407
FLOCK 4Q-22             
1 58306U 23174BC  26062.48446636  .00044371  00000+0  74664-3 0  9994
2 58306  97.3865 151.2688 0006777 163.0660 197.0820 15.51579353129432
FLOCK 4Q-23             
1 58307U 23174BD  26062.77567400  .00064904  00000+0  97325-3 0  9993
2 58307  97.3970 153.0933 0006997 159.0362 201.1180 15.54691288129511
FLOCK 4Q-33             
1 58308U 23174BE  26062.72526620  .00042342  00000+0  73477-3 0  9992
2 58308  97.3890 151.4573 0007490 153.1330 207.0310 15.50715097129458
FLOCK 4Q-35             
1 58309U 23174BF  26062.70818792  .00045344  00000+0  81485-3 0  9998
2 58309  97.3911 151.6130 0008289 166.0462 194.1020 15.49700432129437
FLOCK 4Q-34             
1 58316U 23174BN  26062.72316184  .00063763  00000+0  95041-3 0  9994
2 58316  97.3865 152.4436 0006788 160.7029 199.4483 15.54862861129514
FLOCK 4Q-7              
1 58318U 23174BQ  26062.22357451  .00038639  00000+0  72037-3 0  9997
2 58318  97.3945 150.6479 0008181 159.4814 200.6767 15.48683542129316
