[{"OBJECT_NAME":"FLOCK 4Q-36","OBJECT_ID":"2023-174U","EPOCH":"2026-03-03T16:10:34.248000","MEAN_MOTION":15.50752888,"ECCENTRICITY":0.0007685,"INCLINATION":97.3902,"RA_OF_ASC_NODE":151.7836,"ARG_OF_PERICENTER":165.263,"MEAN_ANOMALY":194.8848,"EPHEMERIS_TYPE":0,"CLASSIFICATION_TYPE":"U","NORAD_CAT_ID":58274,"ELEMENT_SET_NO":999,"REV_AT_EPOCH":12944,"BSTAR":0.00065874,"MEAN_MOTION_DOT":0.00037983,"MEAN_MOTION_DDOT":0},{"OBJECT_NAME":"FLOCK 4Q-12","OBJECT_ID":"2023-174V","EPOCH":"2026-03-03T19:31:10.111872","MEAN_MOTION":15.50914249,"ECCENTRICITY":0.0005995,"INCLINATION":97.3896,"RA_OF_ASC_NODE":151.8095,"ARG_OF_PERICENTER":171.8251,"MEAN_ANOMALY":188.31,"EPHEMERIS_TYPE":0,"CLASSIFICATION_TYPE":"U","NORAD_CAT_ID":58275,"ELEMENT_SET_NO":999,"REV_AT_EPOCH":12948,"BSTAR":0.0016255,"MEAN_MOTION_DOT":0.00095038,"MEAN_MOTION_DDOT":0},{"OBJECT_NAME":"FLOCK 4Q-28","OBJECT_ID":"2023-174AA","EPOCH":"2026-03-03T18:02:41.815104","MEAN_MOTION":15.48587067,"ECCENTRICITY":0.0007327,"INCLINATION":97.3927,"RA_OF_ASC_NODE":150.9931,"ARG_OF_PERICENTER":170.9677,"MEAN_ANOMALY":189.1706,"EPHEMERIS_TYPE":0,"CLASSIFICATION_TYPE":"U","NORAD_CAT_ID":58280,"ELEMENT_SET_NO":999,"REV_AT_EPOCH":12939,"BSTAR":0.00071721,"MEAN_MOTION_DOT":0.00038329,"MEAN_MOTION_DDOT":0},{"OBJECT_NAME":"FLOCK 4Q-27","OBJECT_ID":"2023-174AC","EPOCH":"2026-03-03T19:29:40.610112","MEAN_MOTION":15.48571184,"ECCENTRICITY":0.0006691,"INCLINATION":97.3862,"RA_OF_ASC_NODE":150.5989,"ARG_OF_PERICENTER":165.7449,"MEAN_ANOMALY":194.3992,"EPHEMERIS_TYPE":0,"CLASSIFICATION_TYPE":"U","NORAD_CAT_ID":58282,"ELEMENT_SET_NO":999,"REV_AT_EPOCH":12941,"BSTAR":0.00075694,"MEAN_MOTION_DOT":0.00040439,"MEAN_MOTION_DDOT":0},{"OBJECT_NAME":"FLOCK 4Q-26","OBJECT_ID":"2023-174AE","EPOCH":"2026-03-03T17:29:42.560448","MEAN_MOTION":15.50369327,"ECCENTRICITY":0.0007251,"INCLINATION":97.3915,"RA_OF_ASC_NODE":151.9272,"ARG_OF_PERICENTER":168.956,"MEAN_ANOMALY":191.1852,"EPHEMERIS_TYPE":0,"CLASSIFICATION_TYPE":"U","NORAD_CAT_ID":58284,"ELEMENT_SET_NO":999,"REV_AT_EPOCH":12945,"BSTAR":0.00074614,"MEAN_MOTION_DOT":0.00042474,"MEAN_MOTION_DDOT":0},{"OBJECT_NAME":"FLOCK 4Q-31","OBJECT_ID":"2023-174AF","EPOCH":"2026-03-03T16:39:01.683936","MEAN_MOTION":15.49862061,"ECCENTRICITY":0.0007899,"INCLINATION":97.3959,"RA_OF_ASC_NODE":151.534,"ARG_OF_PERICENTER":171.3277,"MEAN_ANOMALY":188.8112,"EPHEMERIS_TYPE":0,"CLASSIFICATION_TYPE":"U","NORAD_CAT_ID":58285,"ELEMENT_SET_NO":999,"REV_AT_EPOCH":12940,"BSTAR":0.00078999,"MEAN_MOTION_DOT":0.00044197,"MEAN_MOTION_DDOT":0},{"OBJECT_NAME":"FLOCK 4Q-30","OBJECT_ID":"2023-174AG","EPOCH":"2026-03-03T19:28:51.249792","MEAN_MOTION":15.50103843,"ECCENTRICITY":0.0007579,"INCLINATION":97.3965,"RA_OF_ASC_NODE":151.8352,"ARG_OF_PERICENTER":166.6949,"MEAN_ANOMALY":193.4504,"EPHEMERIS_TYPE":0,"CLASSIFICATION_TYPE":"U","NORAD_CAT_ID":58286,"ELEMENT_SET_NO":999,"REV_AT_EPOCH":12943,"BSTAR":0.0008236,"MEAN_MOTION_DOT":0.00046483,"MEAN_MOTION_DDOT":0},{"OBJECT_NAME":"PELICAN-1","OBJECT_ID":"2023-174AS","EPOCH":"2026-03-03T13:20:51.453312","MEAN_MOTION":15.63449254,"ECCENTRICITY":0.0008697,"INCLINATION":97.4024,"RA_OF_ASC_NODE":157.0194,"ARG_OF_PERICENTER":249.181,"MEAN_ANOMALY":110.8518,"EPHEMERIS_TYPE":0,"CLASSIFICATION_TYPE":"U","NORAD_CAT_ID":58296,"ELEMENT_SET_NO":999,"REV_AT_EPOCH":12960,"BSTAR":0.0010652,"MEAN_MOTION_DOT":0.00099332,"MEAN_MOTION_DDOT":0},{"OBJECT_NAME":"FLOCK 4Q-25","OBJECT_ID":"2023-174AZ","EPOCH":"2026-03-03T16:18:00.165312","MEAN_MOTION":15.5586171,"ECCENTRICITY":0.0005215,"INCLINATION":97.3878,"RA_OF_ASC_NODE":152.5365,"ARG_OF_PERICENTER":153.2533,"MEAN_ANOMALY":206.8991,"EPHEMERIS_TYPE":0,"CLASSIFICATION_TYPE":"U","NORAD_CAT_ID":58303,"ELEMENT_SET_NO":999,"REV_AT_EPOCH":12953,"BSTAR":0.00090798,"MEAN_MOTION_DOT":0.00063153,"MEAN_MOTION_DDOT":0},{"OBJECT_NAME":"FLOCK 4Q-29","OBJECT_ID":"2023-174BA","EPOCH":"2026-03-03T18:32:00.702240","MEAN_MOTION":15.49061267,"ECCENTRICITY":0.0007959,"INCLINATION":97.3948,"RA_OF_ASC_NODE":151.3983,"ARG_OF_PERICENTER":159.0641,"MEAN_ANOMALY":201.0937,"EPHEMERIS_TYPE":0,"CLASSIFICATION_TYPE":"U","NORAD_CAT_ID":58304,"ELEMENT_SET_NO":999,"REV_AT_EPOCH":12940,"BSTAR":0.00085347,"MEAN_MOTION_DOT":0.00046446,"MEAN_MOTION_DDOT":0},{"OBJECT_NAME":"FLOCK 4Q-22","OBJECT_ID":"2023-174BC","EPOCH":"2026-03-03T11:37:37.893504","MEAN_MOTION":15.51579353,"ECCENTRICITY":0.00067777,"INCLINATION":97.3865,"RA_OF_ASC_NODE":151.2688,"ARG_OF_PERICENTER":163.066,"MEAN_ANOMALY":197.082,"EPHEMERIS_TYPE":0,"CLASSIFICATION_TYPE":"U","NORAD_CAT_ID":58306,"ELEMENT_SET_NO":999,"REV_AT_EPOCH":12943,"BSTAR":0.00074663741,"MEAN_MOTION_DOT":0.00044371,"MEAN_MOTION_DDOT":0},{"OBJECT_NAME":"FLOCK 4Q-23","OBJECT_ID":"2023-174BD","EPOCH":"2026-03-03T18:36:58.233600","MEAN_MOTION":15.54691288,"ECCENTRICITY":0.0006997,"INCLINATION":97.397,"RA_OF_ASC_NODE":153.0933,"ARG_OF_PERICENTER":159.0362,"MEAN_ANOMALY":201.118,"EPHEMERIS_TYPE":0,"CLASSIFICATION_TYPE":"U","NORAD_CAT_ID":58307,"ELEMENT_SET_NO":999,"REV_AT_EPOCH":12951,"BSTAR":0.00097325,"MEAN_MOTION_DOT":0.00064904,"MEAN_MOTION_DDOT":0},{"OBJECT_NAME":"FLOCK 4Q-33","OBJECT_ID":"2023-174BE","EPOCH":"2026-03-03T17:24:22.999680","MEAN_MOTION":15.50715097,"ECCENTRICITY":0.000749,"INCLINATION":97.389,"RA_OF_ASC_NODE":151.4573,"ARG_OF_PERICENTER":153.133,"MEAN_ANOMALY":207.031,"EPHEMERIS_TYPE":0,"CLASSIFICATION_TYPE":"U","NORAD_CAT_ID":58308,"ELEMENT_SET_NO":999,"REV_AT_EPOCH":12945,"BSTAR":0.00073477,"MEAN_MOTION_DOT":0.00042342,"MEAN_MOTION_DDOT":0},{"OBJECT_NAME":"FLOCK 4Q-35","OBJECT_ID":"2023-174BF","EPOCH":"2026-03-03T16:59:47.436288","MEAN_MOTION":15.49700432,"ECCENTRICITY":0.0008289,"INCLINATION":97.3911,"RA_OF_ASC_NODE":151.613,"ARG_OF_PERICENTER":166.0462,"MEAN_ANOMALY":194.102,"EPHEMERIS_TYPE":0,"CLASSIFICATION_TYPE":"U","NORAD_CAT_ID":58309,"ELEMENT_SET_NO":999,"REV_AT_EPOCH":12943,"BSTAR":0.00081485,"MEAN_MOTION_DOT":0.00045344,"MEAN_MOTION_DDOT":0},{"OBJECT_NAME":"FLOCK 4Q-34","OBJECT_ID":"2023-174BN","EPOCH":"2026-03-03T17:21:21.182976","MEAN_MOTION":15.54862861,"ECCENTRICITY":0.0006788,"INCLINATION":97.3865,"RA_OF_ASC_NODE":152.4436,"ARG_OF_PERICENTER":160.7029,"MEAN_ANOMALY":199.4483,"EPHEMERIS_TYPE":0,"CLASSIFICATION_TYPE":"U","NORAD_CAT_ID":58316,"ELEMENT_SET_NO":999,"REV_AT_EPOCH":12951,"BSTAR":0.00095041,"MEAN_MOTION_DOT":0.00063763,"MEAN_MOTION_DDOT":0},{"OBJECT_NAME":"FLOCK 4Q-7","OBJECT_ID":"2023-174BQ","EPOCH":"2026-03-03T05:21:56.837664","MEAN_MOTION":15.48683542,"ECCENTRICITY":0.00081812,"INCLINATION":97.3945,"RA_OF_ASC_NODE":150.6479,"ARG_OF_PERICENTER":159.4814,"MEAN_ANOMALY":200.6767,"EPHEMERIS_TYPE":0,"CLASSIFICATION_TYPE":"U","NORAD_CAT_ID":58318,"ELEMENT_SET_NO":999,"REV_AT_EPOCH":12931,"BSTAR":0.00072036641,"MEAN_MOTION_DOT":0.00038639,"MEAN_MOTION_DDOT":0}]
